GPS BIIR-2  (PRN 13)    
1 24876U 97035A   17364.50849167  .00000103  00000-0  00000-0 0  9996
2 24876  55.5119 219.3911 0034633  94.6779 265.8047  2.00565082149961
GPS BIIR-3  (PRN 11)    
1 25933U 99055A   17364.56663726 -.00000053  00000-0  00000+0 0  9990
2 25933  51.7699  69.0480 0165970  99.3084 228.5772  2.00553869133580
GPS BIIR-4  (PRN 20)    
1 26360U 00025A   17364.62368881  .00000041  00000-0  00000-0 0  9992
2 26360  53.1581 146.6950 0043791 100.9966  10.2262  2.00551649129285
GPS BIIR-5  (PRN 28)    
1 26407U 00040A   17364.58061917 -.00000055  00000-0  00000-0 0  9992
2 26407  56.5617 337.4843 0201560 271.8261  94.2554  2.00564556127961
GPS BIIR-6  (PRN 14)    
1 26605U 00071A   17364.55909684  .00000105  00000-0  00000-0 0  9990
2 26605  55.0844 217.0453 0094600 248.5592   8.4084  2.00557292125557
GPS BIIR-7  (PRN 18)    
1 26690U 01004A   17364.48154073  .00000049  00000-0  00000+0 0  9993
2 26690  53.0769 149.6252 0185265 259.0807  57.6504  2.00566066123950
GPS BIIR-8  (PRN 16)    
1 27663U 03005A   17364.22641677 -.00000053  00000-0  00000+0 0  9996
2 27663  56.6284 337.2484 0095456  24.6175 200.3606  2.00577238109306
GPS BIIR-9  (PRN 21)    
1 27704U 03010A   17364.46799098 -.00000042  00000-0  00000+0 0  9993
2 27704  53.9816  90.0789 0244412 267.6624  99.7666  2.00549396108119
GPS BIIR-10 (PRN 22)    
1 28129U 03058A   17363.20659144  .00000064  00000-0  00000+0 0  9998
2 28129  52.9692 149.6472 0073915 266.2518  92.8835  2.00567577102787
GPS BIIR-11 (PRN 19)    
1 28190U 04009A   17364.38332118 -.00000043  00000-0  00000+0 0  9990
2 28190  56.1015  38.1617 0095159  62.7885  70.1541  2.00561643100984
GPS BIIR-12 (PRN 23)    
1 28361U 04023A   17364.30071135  .00000108  00000-0  00000+0 0  9998
2 28361  54.0783 211.9682 0120207 222.8155 122.1925  2.00569103 99067
GPS BIIR-13 (PRN 02)    
1 28474U 04045A   17364.45191017 -.00000042  00000-0  00000+0 0  9993
2 28474  54.3554  89.6278 0177668 250.3059 207.9057  2.00565932 96436
GPS BIIRM-1 (PRN 17)    
1 28874U 05038A   17364.38595679 -.00000042  00000-0  00000+0 0  9994
2 28874  56.2502  35.4502 0125308 256.4777 259.1796  2.00556507 89834
GPS BIIRM-2 (PRN 31)    
1 29486U 06042A   17364.43685146 -.00000005  00000-0  00000+0 0  9994
2 29486  55.2771 274.4323 0088575 347.8111 124.9670  2.00573999 82554
GPS BIIRM-3 (PRN 12)    
1 29601U 06052A   17364.22434073 -.00000054  00000-0  00000+0 0  9996
2 29601  56.6027 336.1660 0065507  50.7654 309.8151  2.00564576 81462
GPS BIIRM-4 (PRN 15)    
1 32260U 07047A   17364.03896358  .00000109  00000-0  00000+0 0  9993
2 32260  53.2036 208.1524 0099511  36.4109 324.3369  2.00563532 74843
GPS BIIRM-5 (PRN 29)    
1 32384U 07062A   17364.50851414 -.00000042  00000-0  00000+0 0  9990
2 32384  56.3196  36.0412 0002981  13.0321 102.9156  2.00554157 73584
GPS BIIRM-6 (PRN 07)    
1 32711U 08012A   17364.45040139 -.00000004  00000-0  00000+0 0  9996
2 32711  55.0079 273.7514 0112275 215.1768 144.1266  2.00559863 71762
GPS BIIRM-8 (PRN 05)    
1 35752U 09043A   17364.45228368  .00000055  00000-0  00000+0 0  9996
2 35752  54.2852 151.5575 0051604  34.2569 355.9953  2.00569847 61359
GPS BIIF-1  (PRN 25)    
1 36585U 10022A   17364.57007053 -.00000057  00000-0  00000-0 0  9993
2 36585  55.9005 332.8335 0067402  44.5793 174.3897  2.00559889 55602
GPS BIIF-2  (PRN 01)    
1 37753U 11036A   17364.57620668 -.00000038  00000-0  00000-0 0  9999
2 37753  55.5578  92.9454 0070679  34.2422 275.7583  2.00563203 47280
GPS BIIF-3  (PRN 24)    
1 38833U 12053A   17364.13551970 -.00000000  00000-0  00000+0 0  9998
2 38833  54.0370 270.4877 0064678  26.8130 333.5715  2.00564411 38340
GPS BIIF-4  (PRN 27)    
1 39166U 13023A   17364.48790741 -.00000043  00000-0  00000+0 0  9992
2 39166  55.9528  32.3973 0051636  17.7636 342.4803  2.00563420 33887
GPS BIIF-5  (PRN 30)    
1 39533U 14008A   17363.98785369 -.00000011  00000-0  00000+0 0  9993
2 39533  54.1868 275.8190 0030329 187.3237 172.6754  2.00573178 28237
GPS BIIF-6  (PRN 06)    
1 39741U 14026A   17364.27671619 -.00000038  00000-0  00000+0 0  9998
2 39741  55.5428  92.4797 0011395 283.0273  76.8563  2.00578618 26524
GPS BIIF-7  (PRN 09)    
1 40105U 14045A   17363.86464095  .00000110  00000-0  00000+0 0  9997
2 40105  54.6031 211.9987 0009149 101.5404 258.6415  2.00559059 24963
GPS BIIF-8  (PRN 03)    
1 40294U 14068A   17364.23273095  .00000061  00000-0  00000+0 0  9996
2 40294  55.0348 152.7001 0010571  22.7518 337.2728  2.00573206 23193
GPS BIIF-9  (PRN 26)    
1 40534U 15013A   17363.87377721 -.00000056  00000-0  00000+0 0  9999
2 40534  54.8483 331.7569 0024905 351.6653   8.2927  2.00573770 20251
GPS BIIF-10  (PRN 08)   
1 40730U 15033A   17364.53140712 -.00000044  00000-0  00000+0 0  9998
2 40730  55.4852  31.9780 0032556 321.7383  38.0935  2.00556023 18023
GPS BIIF-11  (PRN 10)   
1 41019U 15062A   17364.08392375  .00000063  00000-0  00000+0 0  9995
2 41019  55.0419 152.5024 0031789 199.2563 160.6028  2.00563909 15837
GPS BIIF-12  (PRN 32)   
1 41328U 16007A   17363.67500949  .00000110  00000-0  00000+0 0  9993
2 41328  54.8568 212.2497 0016500 212.9818 146.9945  2.00569632 13887
